CTC1_L_00125016-03
1 10062U 25335FH  26075.70031250  .00000000  00000+0  00000-0 0  9994
2 10062  70.0000 180.0000 0000000   0.0000   0.0000 14.24551792    18
CTC1_L_00125016-04
1 10063U 25477VP  26075.70031250  .00000000  00000+0  00000-0 0  9992
2 10063  70.0000 180.0000 0000000   0.0000  90.0000 14.24551792    18
CTC1_L_00125017-01
1 10064U 26299FS  26075.70031250  .00000000  00000+0  00000-0 0  9996
2 10064  70.0000 192.0000 0000000   0.0000 192.0000 14.24551792    15
CTC1_L_00125017-02
1 10065U 22185GU  26075.70031250  .00000000  00000+0  00000-0 0  9997
2 10065  70.0000 192.0000 0000000   0.0000 282.0000 14.24551792    16
CTC1_L_00125017-03
1 10066U 24557Q   26075.70031250  .00000000  00000+0  00000-0 0  9993
2 10066  70.0000 192.0000 0000000   0.0000  12.0000 14.24551792    18
CTC1_L_00125017-04
1 10067U 24111RJ  26075.70031250  .00000000  00000+0  00000-0 0  9990
2 10067  70.0000 192.0000 0000000   0.0000 102.0000 14.24551792    19
CTC1_L_00125018-01
1 10068U 22742EA  26075.70031250  .00000000  00000+0  00000-0 0  9999
2 10068  70.0000 204.0000 0000000   0.0000 204.0000 14.24551792    17
CTC1_L_00125018-02
1 10069U 23299EY  26075.70031250  .00000000  00000+0  00000-0 0  9998
2 10069  70.0000 204.0000 0000000   0.0000 294.0000 14.24551792    17
CTC1_L_00125018-03
1 10070U 23996SM  26075.70031250  .00000000  00000+0  00000-0 0  9994
2 10070  70.0000 204.0000 0000000   0.0000  24.0000 14.24551792    10
CTC1_L_00125018-04
1 10071U 23928YH  26075.70031250  .00000000  00000+0  00000-0 0  9990
2 10071  70.0000 204.0000 0000000   0.0000 114.0000 14.24551792    11
CTC1_L_00125019-01
1 10072U 23506IR  26075.70031250  .00000000  00000+0  00000-0 0  9993
2 10072  70.0000 216.0000 0000000   0.0000 216.0000 14.24551792    18
CTC1_L_00125019-02
1 10073U 24182WZ  26075.70031250  .00000000  00000+0  00000-0 0  9995
2 10073  70.0000 216.0000 0000000   0.0000 306.0000 14.24551792    19
CTC1_L_00125019-03
1 10074U 25668VU  26075.70031250  .00000000  00000+0  00000-0 0  9996
2 10074  70.0000 216.0000 0000000   0.0000  36.0000 14.24551792    10
CTC1_L_00125019-04
1 10075U 22709EI  26075.70031250  .00000000  00000+0  00000-0 0  9990
2 10075  70.0000 216.0000 0000000   0.0000 126.0000 14.24551792    11
CTC1_L_00125020-01
1 10076U 23852CR  26075.70031250  .00000000  00000+0  00000-0 0  9991
2 10076  70.0000 228.0000 0000000   0.0000 228.0000 14.24551792    18
CTC1_L_00125020-02
1 10077U 25114EG  26075.70031250  .00000000  00000+0  00000-0 0  9995
2 10077  70.0000 228.0000 0000000   0.0000 318.0000 14.24551792    19
CTC1_L_00125020-03
1 10078U 26187OB  26075.70031250  .00000000  00000+0  00000-0 0  9997
2 10078  70.0000 228.0000 0000000   0.0000  48.0000 14.24551792    10
CTC1_L_00125020-04
1 10079U 26895HY  26075.70031250  .00000000  00000+0  00000-0 0  9994
2 10079  70.0000 228.0000 0000000   0.0000 138.0000 14.24551792    11
CTC1_L_00125021-01
1 10080U 24172QY  26075.70031250  .00000000  00000+0  00000-0 0  9992
2 10080  70.0000 240.0000 0000000   0.0000 240.0000 14.24551792    11
CTC1_L_00125021-02
1 10081U 22876VE  26075.70031250  .00000000  00000+0  00000-0 0  9992
2 10081  70.0000 240.0000 0000000   0.0000 330.0000 14.24551792    12
CTC1_L_00125021-03
1 10082U 24168MT  26075.70031250  .00000000  00000+0  00000-0 0  9999
2 10082  70.0000 240.0000 0000000   0.0000  60.0000 14.24551792    13
CTC1_L_00125021-04
1 10083U 26095VA  26075.70031250  .00000000  00000+0  00000-0 0  9991
2 10083  70.0000 240.0000 0000000   0.0000 150.0000 14.24551792    14
CTC1_L_00125022-01
1 10084U 25135JT  26075.70031250  .00000000  00000+0  00000-0 0  9996
2 10084  70.0000 252.0000 0000000   0.0000 252.0000 14.24551792    11
CTC1_L_00125022-02
1 10085U 23370AY  26075.70031250  .00000000  00000+0  00000-0 0  9996
2 10085  70.0000 252.0000 0000000   0.0000 342.0000 14.24551792    12
CTC1_L_00125022-03
1 10086U 26541YW  26075.70031250  .00000000  00000+0  00000-0 0  9990
2 10086  70.0000 252.0000 0000000   0.0000  72.0000 14.24551792    13
CTC1_L_00125022-04
1 10087U 23003PT  26075.70031250  .00000000  00000+0  00000-0 0  9991
2 10087  70.0000 252.0000 0000000   0.0000 162.0000 14.24551792    14
CTC1_L_00125023-01
1 10088U 22530BG  26075.70031250  .00000000  00000+0  00000-0 0  9996
2 10088  70.0000 264.0000 0000000   0.0000 264.0000 14.24551792    11
CTC1_L_00125023-02
1 10089U 22891PZ  26075.70031250  .00000000  00000+0  00000-0 0  9997
2 10089  70.0000 264.0000 0000000   0.0000 354.0000 14.24551792    12
CTC1_L_00125023-03
1 10090U 26520AE  26075.70031250  .00000000  00000+0  00000-0 0  9992
2 10090  70.0000 264.0000 0000000   0.0000  84.0000 14.24551792    14
CTC1_L_00125023-04
1 10091U 23403ZN  26075.70031250  .00000000  00000+0  00000-0 0  9990
2 10091  70.0000 264.0000 0000000   0.0000 174.0000 14.24551792    15
CTC1_L_00125024-01
1 10092U 22310MI  26075.70031250  .00000000  00000+0  00000-0 0  9997
2 10092  70.0000 276.0000 0000000   0.0000 276.0000 14.24551792    12
CTC1_L_00125024-02
1 10093U 23907RH  26075.70031250  .00000000  00000+0  00000-0 0  9991
2 10093  70.0000 276.0000 0000000   0.0000   6.0000 14.24551792    14
CTC1_L_00125024-03
1 10094U 25329UM  26075.70031250  .00000000  00000+0  00000-0 0  9992
2 10094  70.0000 276.0000 0000000   0.0000  96.0000 14.24551792    14
CTC1_L_00125024-04
1 10095U 26848M   26075.70031250  .00000000  00000+0  00000-0 0  9990
2 10095  70.0000 276.0000 0000000   0.0000 186.0000 14.24551792    15
CTC1_L_00125025-01
1 10096U 26574DI  26075.70031250  .00000000  00000+0  00000-0 0  9997
2 10096  70.0000 288.0000 0000000   0.0000 288.0000 14.24551792    12
CTC1_L_00125025-02
1 10097U 22940TT  26075.70031250  .00000000  00000+0  00000-0 0  9991
2 10097  70.0000 288.0000 0000000   0.0000  18.0000 14.24551792    14
CTC1_L_00125025-03
1 10098U 26817OD  26075.70031250  .00000000  00000+0  00000-0 0  9999
2 10098  70.0000 288.0000 0000000   0.0000 108.0000 14.24551792    15
CTC1_L_00125025-04
1 10099U 23074MH  26075.70031250  .00000000  00000+0  00000-0 0  9992
2 10099  70.0000 288.0000 0000000   0.0000 198.0000 14.24551792    15
CTC1_L_00125026-01
1 10100U 23001ZS  26075.70031250  .00000000  00000+0  00000-0 0  9995
2 10100  70.0000 300.0000 0000000   0.0000 300.0000 14.24551792    18
CTC1_L_00125026-02
1 10101U 25100KL  26075.70031250  .00000000  00000+0  00000-0 0  9998
2 10101  70.0000 300.0000 0000000   0.0000  30.0000 14.24551792    19
CTC1_L_00125026-03
1 10102U 24218RS  26075.70031250  .00000000  00000+0  00000-0 0  9998
2 10102  70.0000 300.0000 0000000   0.0000 120.0000 14.24551792    10
CTC1_L_00125026-04
1 10103U 23204MS  26075.70031250  .00000000  00000+0  00000-0 0  9993
2 10103  70.0000 300.0000 0000000   0.0000 210.0000 14.24551792    11
CTC1_L_00125027-01
1 10104U 24987TV  26075.70031250  .00000000  00000+0  00000-0 0  9993
2 10104  70.0000 312.0000 0000000   0.0000 312.0000 14.24551792    18
CTC1_L_00125027-02
1 10105U 23596PY  26075.70031250  .00000000  00000+0  00000-0 0  9999
2 10105  70.0000 312.0000 0000000   0.0000  42.0000 14.24551792    19
CTC1_L_00125027-03
1 10106U 25015SX  26075.70031250  .00000000  00000+0  00000-0 0  9998
2 10106  70.0000 312.0000 0000000   0.0000 132.0000 14.24551792    10
CTC1_L_00125027-04
1 10107U 24953IO  26075.70031250  .00000000  00000+0  00000-0 0  9999
2 10107  70.0000 312.0000 0000000   0.0000 222.0000 14.24551792    11
CTC1_L_00125028-01
1 10108U 26980QB  26075.70031250  .00000000  00000+0  00000-0 0  9992
2 10108  70.0000 324.0000 0000000   0.0000 324.0000 14.24551792    18
CTC1_L_00125028-02
1 10109U 26606VW  26075.70031250  .00000000  00000+0  00000-0 0  9998
2 10109  70.0000 324.0000 0000000   0.0000  54.0000 14.24551792    19
CTC1_L_00125028-03
1 10110U 23162BO  26075.70031250  .00000000  00000+0  00000-0 0  9994
2 10110  70.0000 324.0000 0000000   0.0000 144.0000 14.24551792    11
CTC1_L_00125028-04
1 10111U 26081JF  26075.70031250  .00000000  00000+0  00000-0 0  9998
2 10111  70.0000 324.0000 0000000   0.0000 234.0000 14.24551792    12
CTC1_L_00125029-01
1 10112U 22558WT  26075.70031250  .00000000  00000+0  00000-0 0  9994
2 10112  70.0000 336.0000 0000000   0.0000 336.0000 14.24551792    19
CTC1_L_00125029-02
1 10113U 23432NM  26075.70031250  .00000000  00000+0  00000-0 0  9997
2 10113  70.0000 336.0000 0000000   0.0000  66.0000 14.24551792    10
CTC1_L_00125029-03
1 10114U 25777FW  26075.70031250  .00000000  00000+0  00000-0 0  9992
2 10114  70.0000 336.0000 0000000   0.0000 156.0000 14.24551792    11
CTC1_L_00125029-04
1 10115U 23214AM  26075.70031250  .00000000  00000+0  00000-0 0  9997
2 10115  70.0000 336.0000 0000000   0.0000 246.0000 14.24551792    12
CTC1_L_00125030-01
1 10116U 22856HC  26075.70031250  .00000000  00000+0  00000-0 0  9999
2 10116  70.0000 348.0000 0000000   0.0000 348.0000 14.24551792    19
CTC1_L_00125030-02
1 10117U 22419QO  26075.70031250  .00000000  00000+0  00000-0 0  9995
2 10117  70.0000 348.0000 0000000   0.0000  78.0000 14.24551792    10
CTC1_L_00125030-03
1 10118U 23834JH  26075.70031250  .00000000  00000+0  00000-0 0  9998
2 10118  70.0000 348.0000 0000000   0.0000 168.0000 14.24551792    11
CTC1_L_00125030-04
1 10119U 26531SN  26075.70031250  .00000000  00000+0  00000-0 0  9996
2 10119  70.0000 348.0000 0000000   0.0000 258.0000 14.24551792    12
